NORAD_CAT_ID,OBJECT_NAME,OBJECT_TYPE,EPOCH,MEAN_MOTION,ECCENTRICITY,INCLINATION,RA_OF_ASC_NODE,ARG_OF_PERICENTER,MEAN_ANOMALY,BSTAR,MEAN_MOTION_DOT,MEAN_MOTION_DDOT,TLE_LINE0,TLE_LINE1,TLE_LINE2,SEMIMAJOR_AXIS,PERIOD,APOGEE,PERIGEE,DECAYED
54775.0,STARLINK-5465,PAYLOAD,2024-01-02 08:57:29,15.08846418,0.0001619,53.2177,23.2476,89.5015,270.6163,0.00018624,2.678e-05,0.0,0 STARLINK-5465,1 54775U 22175T   24002.37326345  .00002678  00000-0  18624-3 0  9993,2 54775  53.2177  23.2476 0001619  89.5015 270.6163 15.08846418 59558,6917.861,95.437,540.846,538.606,0.0
54775.0,STARLINK-5465,PAYLOAD,2024-01-03 00:51:21,15.08839443,0.0001637,53.2182,20.274,92.4867,267.6312,5.5683e-05,5.98e-06,0.0,0 STARLINK-5465,1 54775U 22175T   24003.03567122  .00000598  00000-0  55683-4 0  9993,2 54775  53.2182  20.2740 0001637  92.4867 267.6312 15.08839443 57496,6917.882,95.438,540.88,538.615,0.0
54775.0,STARLINK-5465,PAYLOAD,2024-01-03 07:12:54,15.0883861,0.0001635,53.2183,19.0848,91.5756,268.5423,4.5802e-05,4.41e-06,0.0,0 STARLINK-5465,1 54775U 22175T   24003.30063225  .00000441  00000-0  45802-4 0  9997,2 54775  53.2183  19.0848 0001635  91.5756 268.5423 15.08838610 59699,6917.885,95.438,540.881,538.619,0.0
54775.0,STARLINK-5465,PAYLOAD,2024-01-04 03:52:54,15.08847399,0.0001599,53.2191,15.2193,97.6713,262.4461,9.2454e-05,1.184e-05,0.0,0 STARLINK-5465,1 54775U 22175T   24004.16174500  .00001184  00000-0  92454-4 0  9991,2 54775  53.2191  15.2193 0001599  97.6713 262.4461 15.08847399 57662,6917.858,95.437,540.829,538.617,0.0
54775.0,STARLINK-5465,PAYLOAD,2024-01-04 05:28:17,15.08848144,0.000158,53.2194,14.9223,95.625,264.4923,9.7168e-05,1.259e-05,0.0,0 STARLINK-5465,1 54775U 22175T   24004.22798426  .00001259  00000-0  97168-4 0  9997,2 54775  53.2194  14.9223 0001580  95.6250 264.4923 15.08848144 59834,6917.855,95.437,540.814,538.627,0.0
54775.0,STARLINK-5465,PAYLOAD,2024-01-05 03:43:42,15.08838936,0.0001739,53.2171,10.7579,89.0208,271.0984,9.6358e-05,1.246e-05,0.0,0 STARLINK-5465,1 54775U 22175T   24005.15535045  .00001246  00000-0  96358-4 0  9992,2 54775  53.2171  10.7579 0001739  89.0208 271.0984 15.08838936 57818,6917.884,95.438,540.952,538.546,0.0
54775.0,STARLINK-5465,PAYLOAD,2024-01-05 10:05:14,15.08843008,0.000167,53.2186,9.5686,93.955,266.1633,0.00013772,1.905e-05,0.0,0 STARLINK-5465,1 54775U 22175T   24005.42030672  .00001905  00000-0  13772-3 0  9998,2 54775  53.2186   9.5686 0001670  93.9550 266.1633 15.08843008 60015,6917.871,95.437,540.891,538.581,0.0
54775.0,STARLINK-5465,PAYLOAD,2024-01-06 09:56:01,15.08840723,0.0001759,53.2185,5.1062,103.4036,256.7152,3.5976e-06,-2.31e-06,0.0,0 STARLINK-5465,1 54775U 22175T   24006.41390932 -.00000231  00000-0  35976-5 0  9990,2 54775  53.2185   5.1062 0001759 103.4036 256.7152 15.08840723 58006,6917.878,95.438,540.96,538.526,0.0
54775.0,STARLINK-5465,PAYLOAD,2024-01-07 03:25:16,15.0883515,0.0001652,53.2182,1.8347,92.9986,267.1195,1.5114e-05,-4.8e-07,0.0,0 STARLINK-5465,1 54775U 22175T   24007.14255447 -.00000048  00000-0  15114-4 0  9999,2 54775  53.2182   1.8347 0001652  92.9986 267.1195 15.08835150 58113,6917.895,95.438,540.903,538.617,0.0
54775.0,STARLINK-5465,PAYLOAD,2024-01-07 06:36:01,15.08851956,0.0001623,53.2184,1.2401,95.8173,264.3004,0.00015387,2.162e-05,0.0,0 STARLINK-5465,1 54775U 22175T   24007.27501976  .00002162  00000-0  15387-3 0  9993,2 54775  53.2184   1.2401 0001623  95.8173 264.3004 15.08851956 58130,6917.844,95.437,540.832,538.586,0.0
54775.0,STARLINK-5465,PAYLOAD,2024-01-07 22:29:54,15.08804214,0.0001142,53.2201,358.2751,113.3659,246.7453,0.00061698,9.535e-05,0.0,0 STARLINK-5465,1 54775U 22175T   24007.93744116  .00009535  00000-0  61698-3 0  9998,2 54775  53.2201 358.2751 0001142 113.3659 246.7453 15.08804214 60392,6917.99,95.44,540.645,539.065,0.0
54775.0,STARLINK-5465,PAYLOAD,2024-01-08 03:16:03,15.08833052,0.0001637,53.2176,357.3759,114.1983,245.918,2.4555e-05,1.03e-06,0.0,0 STARLINK-5465,1 54775U 22175T   24008.13615528  .00000103  00000-0  24555-4 0  9999,2 54775  53.2176 357.3759 0001637 114.1983 245.9180 15.08833052 58262,6917.902,95.438,540.899,538.634,0.0
54775.0,STARLINK-5465,PAYLOAD,2024-01-08 09:37:36,15.08834718,0.0001711,53.2181,356.1864,120.6053,239.5108,4.3427e-05,4.03e-06,0.0,0 STARLINK-5465,1 54775U 22175T   24008.40111416  .00000403  00000-0  43427-4 0  9998,2 54775  53.2181 356.1864 0001711 120.6053 239.5108 15.08834718 60469,6917.897,95.438,540.945,538.578,0.0
54775.0,STARLINK-5465,PAYLOAD,2024-01-09 07:53:00,15.08839206,0.0001488,53.2184,352.0232,89.2201,270.8962,8.3399e-05,1.04e-05,0.0,0 STARLINK-5465,1 54775U 22175T   24009.32847468  .00001040  00000-0  83399-4 0  9993,2 54775  53.2184 352.0232 0001488  89.2201 270.8962 15.08839206 58440,6917.883,95.438,540.777,538.718,0.0
54775.0,STARLINK-5465,PAYLOAD,2024-01-09 22:11:28,15.08834777,0.0001378,53.2181,349.3471,89.2865,270.8286,6.0289e-05,6.72e-06,0.0,0 STARLINK-5465,1 54775U 22175T   24009.92463879  .00000672  00000-0  60289-4 0  9992,2 54775  53.2181 349.3471 0001378  89.2865 270.8286 15.08834777 60692,6917.896,95.438,540.715,538.808,0.0
54775.0,STARLINK-5465,PAYLOAD,2024-01-10 07:43:46,15.08846042,0.0001438,53.2181,347.563,86.9179,273.1977,0.00014791,2.067e-05,0.0,0 STARLINK-5465,1 54775U 22175T   24010.32207010  .00002067  00000-0  14791-3 0  9997,2 54775  53.2181 347.5630 0001438  86.9179 273.1977 15.08846042 60756,6917.862,95.437,540.722,538.732,0.0
54775.0,STARLINK-5465,PAYLOAD,2024-01-11 02:48:24,15.08843272,0.0001484,53.2193,343.9931,135.8809,224.2302,9.9212e-05,1.291e-05,0.0,0 STARLINK-5465,1 54775U 22175T   24011.11694940  .00001291  00000-0  99212-4 0  9997,2 54775  53.2193 343.9931 0001484 135.8809 224.2302 15.08843272 58712,6917.87,95.437,540.762,538.709,0.0
54775.0,STARLINK-5465,PAYLOAD,2024-01-11 04:23:47,15.08853436,0.0001482,53.2178,343.6952,119.1812,240.9329,0.00010046,1.312e-05,0.0,0 STARLINK-5465,1 54775U 22175T   24011.18318429  .00001312  00000-0  10046-3 0  9990,2 54775  53.2178 343.6952 0001482 119.1812 240.9329 15.08853436 58720,6917.839,95.437,540.73,538.679,0.0
54775.0,STARLINK-5465,PAYLOAD,2024-01-11 21:53:02,15.08841538,0.0001931,53.2192,340.431,70.357,289.763,7.5683e-05,9.17e-06,0.0,0 STARLINK-5465,1 54775U 22175T   24011.91183599  .00000917  00000-0  75683-4 0  9998,2 54775  53.2192 340.4310 0001931  70.3570 289.7630 15.08841538 60995,6917.876,95.437,541.077,538.405,0.0
54775.0,STARLINK-5465,PAYLOAD,2024-01-12 04:14:34,15.08845722,0.0001564,53.2186,339.236,92.2189,267.8983,1.7301e-05,-1.3e-07,0.0,0 STARLINK-5465,1 54775U 22175T   24012.17679336 -.00000013  00000-0  17301-4 0  9997,2 54775  53.2186 339.2360 0001564  92.2189 267.8983 15.08845722 58871,6917.863,95.437,540.81,538.646,0.0
54775.0,STARLINK-5465,PAYLOAD,2024-01-12 21:43:49,15.08834376,0.000147,53.2192,335.968,95.9197,264.1962,5.0705e-05,5.19e-06,0.0,0 STARLINK-5465,1 54775U 22175T   24012.90543960  .00000519  00000-0  50705-4 0  9996,2 54775  53.2192 335.9680 0001470  95.9197 264.1962 15.08834376 61145,6917.898,95.438,540.78,538.746,0.0
54775.0,STARLINK-5465,PAYLOAD,2024-01-13 04:05:22,15.08846385,0.0001525,53.218,334.7769,93.932,266.1846,3.3993e-07,-2.83e-06,0.0,0 STARLINK-5465,1 54775U 22175T   24013.17039422 -.00000283  00000-0  33993-6 0  9990,2 54775  53.2180 334.7769 0001525  93.9320 266.1846 15.08846385 61184,6917.861,95.437,540.781,538.671,0.0
54775.0,STARLINK-5465,PAYLOAD,2024-01-14 03:56:12,15.08800672,0.0001529,53.2182,330.3163,98.0861,262.0305,-0.0002395,-4.093e-05,0.0,0 STARLINK-5465,1 54775U 22175T   24014.16403733 -.00004093  00000-0 -23950-3 0  9993,2 54775  53.2182 330.3163 0001529  98.0861 262.0305 15.08800672 59176,6918.001,95.44,540.923,538.808,0.0
54775.0,STARLINK-5465,PAYLOAD,2024-01-14 07:06:58,15.08812571,0.0001332,53.2177,329.7135,107.0706,253.0432,-0.00020929,-3.615e-05,0.0,0 STARLINK-5465,1 54775U 22175T   24014.29651149 -.00003615  00000-0 -20929-3 0  9995,2 54775  53.2177 329.7135 0001332 107.0706 253.0432 15.08812571 59196,6917.964,95.439,540.751,538.908,0.0
54775.0,STARLINK-5465,PAYLOAD,2024-01-14 19:50:01,15.08843795,0.000121,53.2184,327.3439,113.2709,246.8411,0.00011228,1.5e-05,0.0,0 STARLINK-5465,1 54775U 22175T   24014.82640414  .00001500  00000-0  11228-3 0  9998,2 54775  53.2184 327.3439 0001210 113.2709 246.8411 15.08843795 59270,6917.869,95.437,540.571,538.897,0.0
54775.0,STARLINK-5465,PAYLOAD,2024-01-14 21:25:24,15.08846015,0.0001273,53.2182,327.0481,83.7085,276.4052,0.00014266,1.984e-05,0.0,0 STARLINK-5465,1 54775U 22175T   24014.89264332  .00001984  00000-0  14266-3 0  9997,2 54775  53.2182 327.0481 0001273  83.7085 276.4052 15.08846015 61449,6917.862,95.437,540.608,538.846,0.0
54775.0,STARLINK-5465,PAYLOAD,2024-01-15 03:46:55,15.08866819,0.0001516,53.2186,325.8543,102.8458,257.2703,0.00028618,4.273e-05,0.0,0 STARLINK-5465,1 54775U 22175T   24015.15758371  .00004273  00000-0  28618-3 0  9998,2 54775  53.2186 325.8543 0001516 102.8458 257.2703 15.08866819 59323,6917.798,95.436,540.712,538.615,0.0
54775.0,STARLINK-5465,PAYLOAD,2024-01-16 00:26:58,15.08823925,0.0001644,53.219,321.9897,130.3808,229.7328,0.00034609,5.222e-05,0.0,0 STARLINK-5465,1 54775U 22175T   24016.01872854  .00005222  00000-0  34609-3 0  9999,2 54775  53.2190 321.9897 0001644 130.3808 229.7328 15.08823925 59456,6917.93,95.439,540.932,538.657,0.0
54775.0,STARLINK-5465,PAYLOAD,2024-01-16 06:48:30,15.08826483,0.000146,53.219,320.8006,85.6406,274.4753,0.0003409,5.14e-05,0.0,0 STARLINK-5465,1 54775U 22175T   24016.28369207  .00005140  00000-0  34090-3 0  9994,2 54775  53.2190 320.8006 0001460  85.6406 274.4753 15.08826483 61654,6917.922,95.438,540.797,538.777,0.0
54775.0,STARLINK-5465,PAYLOAD,2024-01-17 03:28:30,15.08858108,0.0001553,53.2191,316.935,76.7982,283.3183,-8.5262e-05,-1.645e-05,0.0,0 STARLINK-5465,1 54775U 22175T   24017.14479879 -.00001645  00000-0 -85262-4 0  9993,2 54775  53.2191 316.9350 0001553  76.7982 283.3183 15.08858108 59625,6917.825,95.436,540.764,538.616,0.0
